#dP2018  8 28  0  0  0.00000000      96 __u+U ITR00 FIT  IAC
## 2016 172800.00000000   900.00000000 58358 0.0000000000000
+   88   C01C02C03C04C05C06C07C08C09C10C11C12C13C14E01E02E03
+        E04E05E07E08E09E11E12E14E18E19E24E26E30G01G02G03G04
+        G05G06G07G08G09G10G11G12G13G14G15G16G17G18G19G20G21
+        G22G23G24G25G26G27G28G29G30G31G32J01J02J03R01R02R03
+        R04R05R07R08R09R10R11R13R14R15R16R17R18R19R20R21R22
+        R23R24R26  0  0  0  0  0  0  0  0  0  0  0  0  0  0
++         0  0  0  0  0  0  0  0  0  0  0  0  0  0  0  0  0
++         0  0  0  0  0  0  0  0  0  0  0  0  0  0  0  0  0
++         0  0  0  0  0  0  0  0  0  0  0  0  0  0  0  0  0
++         0  0  0  0  0  0  0  0  0  0  0  0  0  0  0  0  0
++         0  0  0  0  0  0  0  0  0  0  0  0  0  0  0  0  0
++         0  0  0  0  0  0  0  0  0  0  0  0  0  0  0  0  0
%c M  cc GPS ccc cccc cccc cccc cccc ccccc ccccc ccccc ccccc
%c cc cc ccc ccc cccc cccc cccc cccc ccccc ccccc ccccc ccccc
%f  0.0000000  0.000000000  0.00000000000  0.000000000000000
%f  0.0000000  0.000000000  0.00000000000  0.000000000000000
%i    0    0    0    0      0      0      0      0         0
%i    0    0    0    0      0      0      0      0         0
/*                                                          
/*   RSA / INFORMATION & ANALYSIS CENTER (IAC) OF MCC       
/*   ULTRA-RAPID DETERMINATION                              
/* PCV:IGS14_2000 OL/AL:FES2004  NONE     YN ORB:CoN CLK:CoN
*  2018 08 28 11 15  0.00000000
PC01 -32304.762659  27094.910358  -1062.913223    527.868291
PC02   4341.674398  41924.353484    796.374088   -134.743868
PC03 -14661.801535  39527.471699   -795.388039   -201.237975
PC04 -39626.516474  14373.621263   -677.452265   -132.062210
PC05  21874.285655  36045.180882    762.402079    -81.926953
PC06  -7170.742618  25959.120435  32801.151804    255.855482
PC07 -23923.795110  26594.040827 -22556.661611      4.021730
PC08 -15249.073749  37781.395347 -10238.860796    502.614551
PC09   5585.920102  32891.885404  26158.315052     64.809320
PC10  -9545.806973  27871.252526 -30153.065610    -27.022359
PC11 -16631.935332  -9705.809444 -20175.846321   -655.080362
PC12 -11030.634641 -25134.592990  -5261.973458    580.467848
PC13  -6583.788308  41359.658853   3541.102489   -249.026035
PC14 -26822.941845  -7429.417184  -1557.398061    285.801550
PE01 -27147.879605  11715.339971   1544.440506   -422.509327
PE02  27127.750767 -11743.049792  -1494.537690     25.268441
PE03  21470.091620  -2542.823217 -20205.928719    -70.708175
PE04  -4676.840386  17206.040437  23636.178593   -105.538043
PE05  25775.750367  13694.060426  -4915.165997    203.655490
PE07 -14998.312084 -21852.982773 -13177.605660    -28.042627
PE08   4399.540016 -17144.861792 -23719.322981   6514.364973
PE09  15189.535696  21654.077163  13282.864109   6693.188323
PE11   5592.216919  26811.423902  11232.446666   4280.519939
PE12  -7367.267517  27553.181183  -7947.541479   4926.899636
PE14 -11285.981363 -23444.294340   1603.839576   6528.404743
PE18   2022.152782  27741.765743 -13429.963003   5949.405202
PE19 -22484.608758    879.140869  19237.529135    -12.779811
PE24   5407.116231  15396.787417 -24699.862244   6523.365316
PE26 -14954.196255 -10593.664038 -23250.362814   5542.605192
PE30  15421.172741 -19166.579116  16456.951933   5559.437006
PG01  13737.405660 -22401.025314   2324.527600    -81.472296
PG02 -17393.462011   6882.508571 -18202.685844     14.887264
PG03  14002.956849 -13272.923857 -18254.849844    128.222084
PG04  21558.197520   8746.299740 -13322.912828     92.941494
PG05 -26459.841165   2863.360660   1724.802784     -2.637236
PG06 -11342.989662 -10260.579285 -21684.093030    370.871243
PG07   3012.689158 -23297.806859  12161.184977    134.034564
PG08  12787.302138  -7927.794947  21931.991126   -113.184492
PG09  -4404.346233 -23047.362619 -12463.846653    509.251776
PG10  16676.696021  11418.680033  17360.925952    184.961220
PG11   9845.328219 -21915.959521  10967.017802   -721.946353
PG12 -19261.528904   9789.565492 -15519.175021    310.960797
PG13 -16342.840981  -1057.873380  20805.818680    -90.220405
PG14  17738.664207  15564.330739 -12055.590715    -97.510167
PG15 -10045.053340  12585.133633  20857.156391   -347.398577
PG16  26768.815244    912.682025    409.453287     11.615063
PG17 -14765.488470 -21856.642731  -3239.458002    -62.272706
PG18  16580.472550 -17437.010036  10585.187191     50.764912
PG19 -17501.312053 -15138.275809 -13208.188960   -407.839686
PG20   6875.028534  14737.143895  20891.011871    514.896434
PG21   1768.303544  22296.834693  15154.714246   -345.816290
PG22  20804.655518 -11131.543998 -11933.049029   -502.553540
PG23   4391.916173 -17955.921211 -18617.640550   -211.978019
PG24 -15063.440097  20607.190414   6637.261412    -54.578966
PG25  -4456.782861  14908.483200 -21675.567370   -638.416396
PG26  24268.638231   5347.892774  -9573.979875    -37.808068
PG27  17948.882024   4182.565829  19138.179816    350.210798
PG28 -13088.443071 -13488.958407  19367.389965    741.043782
PG29   2177.370922  22737.622740 -13580.887582    387.484771
PG30  -5433.309119 -17788.738921  18915.167328     31.741000
PG31  12907.549022   7985.864720 -21754.187614     97.544887
PG32  16509.883158  20468.983053  -4025.247272   -439.741511
PJ01 -26008.278796  26095.354036  25671.151174   -125.655692
PJ02 -35036.888470  23309.863878   5694.237537     -6.327228
PJ03 -20574.034515  21687.845885 -25136.064303 999999.999999
PR01  23159.750561   5039.459062  -9404.593376     31.171731
PR02  10225.520472  -6950.714950 -22279.909922    326.917983
PR03  -7859.008111 -13886.865864 -19846.719293    141.725368
PR04 -21579.707566 -12459.321340  -5401.814761    274.096842
PR05 -22431.460217  -4104.916828  11421.355777      9.273229
PR07   8317.500651  14010.712841  19673.835362    -45.809895
PR08  21226.079286  12755.861285   6177.763674     21.582400
PR09 -17930.734139  16810.773866  -6943.834443     25.495128
PR10  -5027.994212  14879.860808 -20143.342690     30.582306
PR11  12005.738555   4420.397707 -22038.366648    -39.095145
PR13  17862.334939 -16950.052510   6615.993210    -14.056735
PR14   4825.966605 -15077.080839  20011.018320     30.474772
PR15  -8099.521546  -7306.865446  23064.875010    -15.403352
PR16 -20887.098589   8376.627654  11892.192535    100.359130
PR17  -1975.968520 -25432.723380   1031.162074    159.653376
PR18  -8716.040787 -18574.912389 -15110.980144    208.468192
PR19 -10606.535836  -1636.415223 -23146.929182    -58.655509
PR20  -6383.668429  17863.236029 -17076.473505   -350.260243
PR21   2180.686532  25391.783074   -620.949936     -0.333293
PR22   9199.579149  16987.423640  16723.118212    -60.386258
PR23  10233.324341  -3248.610330  23124.625001    174.730069
PR24   5627.600485 -18828.690727  16226.637239   -170.656417
PR26  -6546.817080  16932.364047 -17899.167481 999999.999999
EOF
